{"type": "FeatureCollection", "features": [ {"type": "Feature", "properties": {"norad_id": 37084, "name": "COSMOS 2251 DEB", "group": "cosmos-2251-debris", "lat": -18.334929257819162, "lon": -6.92530178226666, "alt_km": 524.5436492346535, "timestamp": "2025-12-09T16:56:36.971778+00:00", "meta": {"OBJECT_NAME": "COSMOS 2251 DEB", "OBJECT_ID": "1993-036BFE", "EPOCH": "2025-12-08T19:15:18.077184", "MEAN_MOTION": 15.00891112, "ECCENTRICITY": 0.00979748, "INCLINATION": 74.0259, "RA_OF_ASC_NODE": 169.4673, "ARG_OF_PERICENTER": 250.8811, "MEAN_ANOMALY": 108.175, "EPHEMERIS_TYPE": 0, "CLASSIFICATION_TYPE": "U", "NORAD_CAT_ID": 37084, "ELEMENT_SET_NO": 999, "REV_AT_EPOCH": 66208, "BSTAR": 0.00080064992, "MEAN_MOTION_DOT": 0.00011267, "MEAN_MOTION_DDOT": 0}, "tle": {"line1": "1 37084U 93036BFE 25342.80229256  .00011267  00000+0  80065-3 0  9991", "line2": "2 37084  74.0259 169.4673 0097974 250.8811 108.1750 15.00891112662080"}}, "geometry": {"type": "Point", "coordinates": [-6.92530178226666, -18.334929257819162]}}, {"type": "Feature", "properties": {"norad_id": 37085, "name": "COSMOS 2251 DEB", "group": "cosmos-2251-debris", "lat": 12.31068165676748, "lon": 39.0543888034025, "alt_km": 449.94310955612946, "timestamp": "2025-12-09T16:56:36.971788+00:00", "meta": {"OBJECT_NAME": "COSMOS 2251 DEB", "OBJECT_ID": "1993-036BFF", "EPOCH": "2025-12-02T23:36:37.668384", "MEAN_MOTION": 15.39020756, "ECCENTRICITY": 0.0022856, "INCLINATION": 73.9503, "RA_OF_ASC_NODE": 237.2473, "ARG_OF_PERICENTER": 76.375, "MEAN_ANOMALY": 284, "EPHEMERIS_TYPE": 0, "CLASSIFICATION_TYPE": "U", "NORAD_CAT_ID": 37085, "ELEMENT_SET_NO": 999, "REV_AT_EPOCH": 66987, "BSTAR": 0.0028642077, "MEAN_MOTION_DOT": 0.00113322, "MEAN_MOTION_DDOT": 0}, "tle": {"line1": "1 37085U 93036BFF 25336.98376931  .00113322  00000+0  28642-2 0  9994", "line2": "2 37085  73.9503 237.2473 0022856  76.3750 284.0000 15.39020756669879"}}, "geometry": {"type": "Point", "coordinates": [39.0543888034025, 12.31068165676748]}}, {"type": "Feature", "properties": {"norad_id": 37089, "name": "COSMOS 2251 DEB", "group": "cosmos-2251-debris", "lat": -11.79708842750034, "lon": -25.10121697511464, "alt_km": 671.541928055919, "timestamp": "2025-12-09T16:56:36.971799+00:00", "meta": {"OBJECT_NAME": "COSMOS 2251 DEB", "OBJECT_ID": "1993-036BFK", "EPOCH": "2025-12-08T05:20:37.786848", "MEAN_MOTION": 14.52807892, "ECCENTRICITY": 0.01353256, "INCLINATION": 74.0364, "RA_OF_ASC_NODE": 154.2692, "ARG_OF_PERICENTER": 255.408, "MEAN_ANOMALY": 103.2044, "EPHEMERIS_TYPE": 0, "CLASSIFICATION_TYPE": "U", "NORAD_CAT_ID": 37089, "ELEMENT_SET_NO": 999, "REV_AT_EPOCH": 66044, "BSTAR": 0.0030256992, "MEAN_MOTION_DOT": 0.00014025, "MEAN_MOTION_DDOT": 0}, "tle": {"line1": "1 37089U 93036BFK 25342.22265957  .00014025  00000+0  30257-2 0  9992", "line2": "2 37089  74.0364 154.2692 0135325 255.4080 103.2044 14.52807892660445"}}, "geometry": {"type": "Point", "coordinates": [-25.10121697511464, -11.79708842750034]}}, {"type": "Feature", "properties": {"norad_id": 37094, "name": "COSMOS 2251 DEB", "group": "cosmos-2251-debris", "lat": 52.614508506678526, "lon": -75.166379701747, "alt_km": 708.7707941956223, "timestamp": "2025-12-09T16:56:36.971809+00:00", "meta": {"OBJECT_NAME": "COSMOS 2251 DEB", "OBJECT_ID": "1993-036BFQ", "EPOCH": "2025-12-09T03:00:55.518912", "MEAN_MOTION": 14.37794423, "ECCENTRICITY": 0.00840104, "INCLINATION": 74.1082, "RA_OF_ASC_NODE": 127.7863, "ARG_OF_PERICENTER": 94.7436, "MEAN_ANOMALY": 266.3318, "EPHEMERIS_TYPE": 0, "CLASSIFICATION_TYPE": "U", "NORAD_CAT_ID": 37094, "ELEMENT_SET_NO": 999, "REV_AT_EPOCH": 84454, "BSTAR": 0.0012132695, "MEAN_MOTION_DOT": 3.783e-05, "MEAN_MOTION_DDOT": 0}, "tle": {"line1": "1 37094U 93036BFQ 25343.12564258  .00003783  00000+0  12133-2 0  9996", "line2": "2 37094  74.1082 127.7863 0084010  94.7436 266.3318 14.37794423844545"}}, "geometry": {"type": "Point", "coordinates": [-75.166379701747, 52.614508506678526]}}, {"type": "Feature", "properties": {"norad_id": 37095, "name": "COSMOS 2251 DEB", "group": "cosmos-2251-debris", "lat": 63.152078296355064, "lon": -129.8168856707859, "alt_km": 1016.8034593794382, "timestamp": "2025-12-09T16:56:36.971819+00:00", "meta": {"OBJECT_NAME": "COSMOS 2251 DEB", "OBJECT_ID": "1993-036BFR", "EPOCH": "2025-12-05T08:14:56.192352", "MEAN_MOTION": 14.03341959, "ECCENTRICITY": 0.01953957, "INCLINATION": 73.8477, "RA_OF_ASC_NODE": 202.9366, "ARG_OF_PERICENTER": 261.9904, "MEAN_ANOMALY": 95.9019, "EPHEMERIS_TYPE": 0, "CLASSIFICATION_TYPE": "U", "NORAD_CAT_ID": 37095, "ELEMENT_SET_NO": 999, "REV_AT_EPOCH": 62532, "BSTAR": 0.0025687664, "MEAN_MOTION_DOT": 4.727e-05, "MEAN_MOTION_DDOT": 0}, "tle": {"line1": "1 37095U 93036BFR 25339.34370593  .00004727  00000+0  25688-2 0  9991", "line2": "2 37095  73.8477 202.9366 0195395 261.9904  95.9019 14.03341959625323"}}, "geometry": {"type": "Point", "coordinates": [-129.8168856707859, 63.152078296355064]}}, {"type": "Feature", "properties": {"norad_id": 37108, "name": "COSMOS 2251 DEB", "group": "cosmos-2251-debris", "lat": 53.22524789623884, "lon": 108.68446270431501, "alt_km": 767.6208521911185, "timestamp": "2025-12-09T16:56:36.971830+00:00", "meta": {"OBJECT_NAME": "COSMOS 2251 DEB", "OBJECT_ID": "1993-036BGE", "EPOCH": "2025-12-08T17:21:24.429024", "MEAN_MOTION": 14.41240168, "ECCENTRICITY": 0.00918255, "INCLINATION": 74.0439, "RA_OF_ASC_NODE": 87.996, "ARG_OF_PERICENTER": 165.5632, "MEAN_ANOMALY": 194.8181, "EPHEMERIS_TYPE": 0, "CLASSIFICATION_TYPE": "U", "NORAD_CAT_ID": 37108, "ELEMENT_SET_NO": 999, "REV_AT_EPOCH": 85449, "BSTAR": 0.002465693, "MEAN_MOTION_DOT": 8.357e-05, "MEAN_MOTION_DDOT": 0}, "tle": {"line1": "1 37108U 93036BGE 25342.72319941  .00008357  00000+0  24657-2 0  9990", "line2": "2 37108  74.0439  87.9960 0091825 165.5632 194.8181 14.41240168854493"}}, "geometry": {"type": "Point", "coordinates": [108.68446270431501, 53.22524789623884]}}, {"type": "Feature", "properties": {"norad_id": 37126, "name": "COSMOS 2251 DEB", "group": "cosmos-2251-debris", "lat": -28.06138788475661, "lon": -8.350955649590878, "alt_km": 658.0450279104671, "timestamp": "2025-12-09T16:56:36.971840+00:00", "meta": {"OBJECT_NAME": "COSMOS 2251 DEB", "OBJECT_ID": "1993-036BGY", "EPOCH": "2025-12-07T08:01:44.004576", "MEAN_MOTION": 14.73044037, "ECCENTRICITY": 0.01233958, "INCLINATION": 73.952, "RA_OF_ASC_NODE": 5.1188, "ARG_OF_PERICENTER": 244.4647, "MEAN_ANOMALY": 114.3726, "EPHEMERIS_TYPE": 0, "CLASSIFICATION_TYPE": "U", "NORAD_CAT_ID": 37126, "ELEMENT_SET_NO": 999, "REV_AT_EPOCH": 8019, "BSTAR": 0.00045541801, "MEAN_MOTION_DOT": 3.268e-05, "MEAN_MOTION_DDOT": 0}, "tle": {"line1": "1 37126U 93036BGY 25341.33453709  .00003268  00000+0  45542-3 0  9990", "line2": "2 37126  73.9520   5.1188 0123395 244.4647 114.3726 14.73044037 80199"}}, "geometry": {"type": "Point", "coordinates": [-8.350955649590878, -28.06138788475661]}}, {"type": "Feature", "properties": {"norad_id": 37132, "name": "COSMOS 2251 DEB", "group": "cosmos-2251-debris", "lat": -28.108235956283085, "lon": -128.80451613547984, "alt_km": 630.4678013273142, "timestamp": "2025-12-09T16:56:36.971861+00:00", "meta": {"OBJECT_NAME": "COSMOS 2251 DEB", "OBJECT_ID": "1993-036BHE", "EPOCH": "2025-12-07T11:27:27.762624", "MEAN_MOTION": 14.77705967, "ECCENTRICITY": 0.0039737, "INCLINATION": 74.0029, "RA_OF_ASC_NODE": 244.3909, "ARG_OF_PERICENTER": 41.7313, "MEAN_ANOMALY": 318.688, "EPHEMERIS_TYPE": 0, "CLASSIFICATION_TYPE": "U", "NORAD_CAT_ID": 37132, "ELEMENT_SET_NO": 999, "REV_AT_EPOCH": 62338, "BSTAR": 0.0017835716, "MEAN_MOTION_DOT": 0.00012942, "MEAN_MOTION_DDOT": 0}, "tle": {"line1": "1 37132U 93036BHE 25341.47740466  .00012942  00000+0  17836-2 0  9994", "line2": "2 37132  74.0029 244.3909 0039737  41.7313 318.6880 14.77705967623388"}}, "geometry": {"type": "Point", "coordinates": [-128.80451613547984, -28.108235956283085]}}, {"type": "Feature", "properties": {"norad_id": 37270, "name": "COSMOS 2251 DEB", "group": "cosmos-2251-debris", "lat": -25.745013905843802, "lon": -27.156618261948346, "alt_km": 763.4538092009161, "timestamp": "2025-12-09T16:56:36.971873+00:00", "meta": {"OBJECT_NAME": "COSMOS 2251 DEB", "OBJECT_ID": "1993-036BHJ", "EPOCH": "2025-12-06T23:44:09.019392", "MEAN_MOTION": 13.59708116, "ECCENTRICITY": 0.03977945, "INCLINATION": 73.9304, "RA_OF_ASC_NODE": 345.2655, "ARG_OF_PERICENTER": 358.2371, "MEAN_ANOMALY": 1.731, "EPHEMERIS_TYPE": 0, "CLASSIFICATION_TYPE": "U", "NORAD_CAT_ID": 37270, "ELEMENT_SET_NO": 999, "REV_AT_EPOCH": 76991, "BSTAR": 0.0060698053, "MEAN_MOTION_DOT": 7.585e-05, "MEAN_MOTION_DDOT": 0}, "tle": {"line1": "1 37270U 93036BHJ 25340.98899328  .00007585  00000+0  60698-2 0  9995", "line2": "2 37270  73.9304 345.2655 0397794 358.2371   1.7310 13.59708116769910"}}, "geometry": {"type": "Point", "coordinates": [-27.156618261948346, -25.745013905843802]}}, {"type": "Feature", "properties": {"norad_id": 37278, "name": "COSMOS 2251 DEB", "group": "cosmos-2251-debris", "lat": 62.5919970169137, "lon": 140.64302322127244, "alt_km": 740.1120635268617, "timestamp": "2025-12-09T16:56:36.971883+00:00", "meta": {"OBJECT_NAME": "COSMOS 2251 DEB", "OBJECT_ID": "1993-036BHS", "EPOCH": "2025-12-04T09:26:36.152736", "MEAN_MOTION": 14.15029915, "ECCENTRICITY": 0.029998, "INCLINATION": 73.7864, "RA_OF_ASC_NODE": 4.3592, "ARG_OF_PERICENTER": 188.2556, "MEAN_ANOMALY": 234.4903, "EPHEMERIS_TYPE": 0, "CLASSIFICATION_TYPE": "U", "NORAD_CAT_ID": 37278, "ELEMENT_SET_NO": 999, "REV_AT_EPOCH": 63711, "BSTAR": 0.0023061, "MEAN_MOTION_DOT": 6.884e-05, "MEAN_MOTION_DDOT": 0}, "tle": {"line1": "1 37278U 93036BHS 25338.39347399  .00006884  00000+0  23061-2 0  9995", "line2": "2 37278  73.7864   4.3592 0299980 188.2556 234.4903 14.15029915637119"}}, "geometry": {"type": "Point", "coordinates": [140.64302322127244, 62.5919970169137]}}]}